Unnamed: 0,NORAD_CAT_ID,OBJECT_NAME,EPOCH,MEAN_MOTION,ECCENTRICITY,INCLINATION,RA_OF_ASC_NODE,ARG_OF_PERICENTER,MEAN_ANOMALY,BSTAR,MEAN_MOTION_DOT,MEAN_MOTION_DDOT,TLE_LINE1,TLE_LINE2,SEMIMAJOR_AXIS,PERIOD,APOGEE,PERIGEE,alltitude
2153034,48481,STARLINK-2706,2022-01-28 09:34:56.661888,15.06397891,0.0001284,53.056,101.1721,64.241,295.8712,-4.7215e-05,-9.85e-06,0,1 48481U 21040BF  22028.39926692 -.00000985  00000-0 -47215-4 0  9999,2 48481  53.0560 101.1721 0001284  64.2410 295.8712 15.06397891 41346,6925.355,95.592,548.109,546.331,547.71435400895
2143566,48481,STARLINK-2706,2022-01-26 14:35:22.778880,15.06407346,0.0001219,53.0564,109.2141,66.5344,293.5773,0.00011141,1.379e-05,0,1 48481U 21040BF  22026.60789442  .00001379  00000-0  11141-3 0  9995,2 48481  53.0564 109.2141 0001219  66.5344 293.5773 15.06407346 39799,6925.326,95.592,548.035,546.347,547.7314171929872
2142545,48481,STARLINK-2706,2022-01-26 12:59:49.808544,15.06405991,0.0001253,53.0569,109.5123,68.976,291.1363,0.00011835,1.482e-05,0,1 48481U 21040BF  22026.54154871  .00001482  00000-0  11835-3 0  9995,2 48481  53.0569 109.5123 0001253  68.9760 291.1363 15.06405991 39785,6925.33,95.592,548.063,546.327,547.7658458160945
2140628,48481,STARLINK-2706,2022-01-26 05:02:08.318400,15.06407201,0.0001465,53.0564,111.0013,68.6053,291.5092,-1.4259e-06,-3.03e-06,0,1 48481U 21040BF  22026.20981850 -.00000303  00000-0 -14259-5 0  9991,2 48481  53.0564 111.0013 0001465  68.6053 291.5092 15.06407201 41011,6925.326,95.592,548.206,546.177,547.6994243434452
2138012,48481,STARLINK-2706,2022-01-25 14:42:17.645472,15.06399474,0.000126,53.0568,113.6819,68.2395,291.8728,-4.0836e-05,-8.9e-06,0,1 48481U 21040BF  22025.61270423 -.00000890  00000-0 -40836-4 0  9992,2 48481  53.0568 113.6819 0001260  68.2395 291.8728 15.06399474 39642,6925.35,95.592,548.088,546.343,547.7724064483934
2137044,48481,STARLINK-2706,2022-01-25 13:06:45.250848,15.06399734,0.0001265,53.057,113.9797,74.3896,285.7233,-3.4032e-05,-7.88e-06,0,1 48481U 21040BF  22025.54635707 -.00000788  00000-0 -34032-4 0  9991,2 48481  53.0570 113.9797 0001265  74.3896 285.7233 15.06399734 39633,6925.349,95.592,548.09,546.338,547.856379434155
2135381,48481,STARLINK-2706,2022-01-25 05:09:03.781440,15.06393925,0.0001329,53.0571,115.469,71.7585,288.3549,-2.8551e-05,-7.07e-06,0,1 48481U 21040BF  22025.21462710 -.00000707  00000-0 -28551-4 0  9997,2 48481  53.0571 115.4690 0001329  71.7585 288.3549 15.06393925 40862,6925.367,95.593,548.153,546.312,547.8257747283385
2132942,48481,STARLINK-2706,2022-01-24 16:24:44.126784,15.064017,0.000129,53.0569,117.8517,71.7089,288.404,0.00010411,1.27e-05,0,1 48481U 21040BF  22024.68384406  .00001270  00000-0  10411-3 0  9991,2 48481  53.0569 117.8517 0001290  71.7089 288.4040 15.06401700 39506,6925.343,95.592,548.102,546.315,547.8047800346218
2131460,48481,STARLINK-2706,2022-01-24 11:38:07.131264,15.06399755,0.0001292,53.057,118.7454,72.9219,287.1912,0.00012649,1.603e-05,0,1 48481U 21040BF  22024.48480476  .00001603  00000-0  12649-3 0  9998,2 48481  53.0570 118.7454 0001292  72.9219 287.1912 15.06399755 39474,6925.349,95.592,548.109,546.32,547.8283737526838
2127294,48481,STARLINK-2706,2022-01-23 16:31:38.520192,15.06399362,0.0001266,53.0566,122.3192,71.3529,288.7597,0.00021963,2.991e-05,0,1 48481U 21040BF  22023.68864028  .00002991  00000-0  21963-3 0  9998,2 48481  53.0566 122.3192 0001266  71.3529 288.7597 15.06399362 40637,6925.351,95.592,548.092,546.339,547.8149339868243
2127296,48481,STARLINK-2706,2022-01-23 16:31:38.520192,15.06399362,0.0001266,53.0566,122.3192,71.3529,288.7597,0.00021963,2.991e-05,0,1 48481U 21040BF  22023.68864028  .00002991  00000-0  21963-3 0  9998,2 48481  53.0566 122.3192 0001266  71.3529 288.7597 15.06399362 39354,6925.351,95.592,548.092,546.339,547.8149339868243
2126272,48481,STARLINK-2706,2022-01-23 13:20:33.851040,15.06397564,0.0001261,53.0565,122.9149,71.4004,288.7122,0.00020622,2.791e-05,0,1 48481U 21040BF  22023.55594735  .00002791  00000-0  20622-3 0  9998,2 48481  53.0565 122.9149 0001261  71.4004 288.7122 15.06397564 39339,6925.356,95.592,548.094,546.348,547.8246982823879
2121570,48481,STARLINK-2706,2022-01-22 13:27:28.902816,15.0639291,0.000154,53.0561,127.3815,83.9898,276.1267,-7.5496e-06,-3.94e-06,0,1 48481U 21040BF  22022.56075119 -.00000394  00000-0 -75496-5 0  9998,2 48481  53.0561 127.3815 0001540  83.9898 276.1267 15.06392910 39187,6925.37,95.593,548.302,546.169,548.0059295821278
2121033,48481,STARLINK-2706,2022-01-22 11:51:56.397600,15.06396042,0.0001287,53.0562,127.6794,76.724,283.3892,-3.6229e-05,-8.21e-06,0,1 48481U 21040BF  22022.49440275 -.00000821  00000-0 -36229-4 0  9994,2 48481  53.0562 127.6794 0001287  76.7240 283.3892 15.06396042 40452,6925.361,95.592,548.117,546.334,547.8997441388113
2120492,48481,STARLINK-2706,2022-01-22 10:16:24.124800,15.06397122,0.0001337,53.0561,127.9769,78.6763,281.4376,-4.7025e-05,-9.82e-06,0,1 48481U 21040BF  22022.42805570 -.00000982  00000-0 -47025-4 0  9994,2 48481  53.0561 127.9769 0001337  78.6763 281.4376 15.06397122 39165,6925.357,95.592,548.148,546.296,547.9163215362349
2116019,48481,STARLINK-2706,2022-01-21 13:34:23.719584,15.06382324,0.0001426,53.0559,131.8485,82.0517,278.0634,-4.6016e-05,-9.66e-06,0,1 48481U 21040BF  22021.56555231 -.00000966  00000-0 -46016-4 0  9995,2 48481  53.0559 131.8485 0001426  82.0517 278.0634 15.06382324 39039,6925.403,95.593,548.255,546.28,548.012147487969
2115431,48481,STARLINK-2706,2022-01-21 11:58:51.674880,15.0638572,0.0001481,53.056,132.1464,78.3574,281.7581,-1.2125e-05,-4.62e-06,0,1 48481U 21040BF  22021.49920217 -.00000462  00000-0 -12125-4 0  9992,2 48481  53.0560 132.1464 0001481  78.3574 281.7581 15.06385720 40301,6925.392,95.593,548.283,546.232,547.926304773553
2111359,48481,STARLINK-2706,2022-01-20 15:16:48.669024,15.06403772,0.0001335,53.056,136.0189,68.1947,291.9184,0.00011095,1.372e-05,0,1 48481U 21040BF  22020.63667441  .00001372  00000-0  11095-3 0  9997,2 48481  53.0560 136.0189 0001335  68.1947 291.9184 15.06403772 38898,6925.337,95.592,548.127,546.277,547.7393398532105
2110476,48481,STARLINK-2706,2022-01-20 13:41:16.245888,15.06404213,0.0001338,53.0577,136.3184,73.8824,286.2312,0.00012465,1.576e-05,0,1 48481U 21040BF  22020.57032692  .00001576  00000-0  12465-3 0  9992,2 48481  53.0577 136.3184 0001338  73.8824 286.2312 15.06404213 38884,6925.336,95.592,548.127,546.274,547.8211267466546
2109978,48481,STARLINK-2706,2022-01-20 12:05:43.741536,15.06405582,0.0001558,53.0561,136.6144,80.8006,279.3159,0.00015589,2.042e-05,0,1 48481U 21040BF  22020.50397849  .00002042  00000-0  15589-3 0  9992,2 48481  53.0561 136.6144 0001558  80.8006 279.3159 15.06405582 40155,6925.331,95.592,548.275,546.117,547.9050275771647
2104822,48481,STARLINK-2706,2022-01-19 12:12:39.245184,15.06387878,0.0001542,53.0558,141.0816,80.2836,279.8327,9.1125e-05,1.076e-05,0,1 48481U 21040BF  22019.50878756  .00001076  00000-0  91125-4 0  9998,2 48481  53.0558 141.0816 0001542  80.2836 279.8327 15.06387878 40008,6925.386,95.593,548.319,546.183,547.947697778577
2104820,48481,STARLINK-2706,2022-01-19 12:12:39.245184,15.06387878,0.0001542,53.0558,141.0816,80.2836,279.8327,9.1125e-05,1.076e-05,0,1 48481U 21040BF  22019.50878756  .00001076  00000-0  91125-4 0  9998,2 48481  53.0558 141.0816 0001542  80.2836 279.8327 15.06387878 38724,6925.386,95.593,548.319,546.183,547.947697778577
2103107,48481,STARLINK-2706,2022-01-19 02:39:25.235136,15.06383449,0.0001576,53.0557,142.8683,80.5883,279.5284,7.8995e-06,-1.64e-06,0,1 48481U 21040BF  22019.11070874 -.00000164  00000-0  78995-5 0  9999,2 48481  53.0557 142.8683 0001576  80.5883 279.5284 15.06383449 39940,6925.399,95.593,548.356,546.173,547.962888719967
2101000,48481,STARLINK-2706,2022-01-18 15:30:37.767744,15.06397086,0.0001477,53.0563,144.9539,79.392,280.7235,-2.8614e-05,-7.08e-06,0,1 48481U 21040BF  22018.64627046 -.00000708  00000-0 -28614-4 0  9992,2 48481  53.0563 144.9539 0001477  79.3920 280.7235 15.06397086 38590,6925.357,95.592,548.245,546.2,547.9155553988871
2100999,48481,STARLINK-2706,2022-01-18 15:30:37.767744,15.06397086,0.0001477,53.0563,144.9539,79.392,280.7235,-2.8614e-05,-7.08e-06,0,1 48481U 21040BF  22018.64627046 -.00000708  00000-0 -28614-4 0  9992,2 48481  53.0563 144.9539 0001477  79.3920 280.7235 15.06397086 39872,6925.357,95.592,548.245,546.2,547.9155553988871
2100248,48481,STARLINK-2706,2022-01-18 13:55:05.104416,15.06400762,0.000149,53.0563,145.2518,80.1433,279.9724,-1.1912e-06,-2.99e-06,0,1 48481U 21040BF  22018.57992019 -.00000299  00000-0 -11912-5 0  9998,2 48481  53.0563 145.2518 0001490  80.1433 279.9724 15.06400762 38583,6925.346,95.592,548.243,546.179,547.9108411843594
2096122,48481,STARLINK-2706,2022-01-17 18:48:37.320192,15.06389367,0.0001551,53.0554,148.8256,83.3796,276.737,-6.3227e-05,-1.223e-05,0,1 48481U 21040BF  22017.78376528 -.00001223  00000-0 -63227-4 0  9994,2 48481  53.0554 148.8256 0001551  83.3796 276.7370 15.06389367 38462,6925.381,95.593,548.32,546.172,548.0000309962892
2095131,48481,STARLINK-2706,2022-01-17 14:01:59.991168,15.06394967,0.0001628,53.0587,149.7186,89.0077,271.1099,-0.00010636,-1.865e-05,0,1 48481U 21040BF  22017.58472212 -.00001865  00000-0 -10636-3 0  9996,2 48481  53.0587 149.7186 0001628  89.0077 271.1099 15.06394967 38436,6925.364,95.592,548.356,546.102,548.0926661142463
2093076,48481,STARLINK-2706,2022-01-17 09:15:22.705344,15.06398532,0.0001545,53.056,150.6122,83.1532,276.9633,-9.8713e-05,-1.751e-05,0,1 48481U 21040BF  22017.38567946 -.00001751  00000-0 -98713-4 0  9990,2 48481  53.0560 150.6122 0001545  83.1532 276.9633 15.06398532 39684,6925.353,95.592,548.288,546.148,547.9712775064571
2089713,48481,STARLINK-2706,2022-01-16 18:55:31.284480,15.06403313,0.0001555,53.0576,153.2923,84.9251,275.1915,-3.2091e-07,-2.86e-06,0,1 48481U 21040BF  22016.78855357 -.00000286  00000-0 -32091-6 0  9990,2 48481  53.0576 153.2923 0001555  84.9251 275.1915 15.06403313 38314,6925.338,95.592,548.28,546.127,547.9838519522198
